YAOGAN-30 P             
1 44450U 19045B   22202.20538289  .00001506  00000+0  15358-3 0  9997
2 44450  34.9963 299.5597 0011004 304.7662  55.2030 14.90584682162813
YAOGAN-30 Q             
1 44451U 19045C   22202.18319918  .00001517  00000+0  15484-3 0  9993
2 44451  34.9970 299.4720 0002265 309.1741  50.8765 14.90596329162788
MERIDIAN 8              
1 44453U 19046A   22201.53484024  .00000258  00000+0  00000+0 0  9990
2 44453  62.6661 210.0859 6773952 274.5895 348.2077  2.00597251 21783
COSMOS 2539             
1 44457U 19048A   22201.87228692  .00000078  00000+0  00000+0 0  9990
2 44457   0.0504 112.0339 0000725 148.7466   3.8617  1.00274149 10918
EDRS-C                  
1 44475U 19049A   22202.08331381  .00000152  00000+0  00000+0 0  9998
2 44475   0.0403 235.7343 0000552 216.9873 267.2694  1.00271341 10880
INTELSAT 39 (IS-39)     
1 44476U 19049B   22201.80058505  .00000030  00000+0  00000+0 0  9997
2 44476   0.0197  50.1739 0000864 267.1209 331.3872  1.00269938 10831
AMOS-17                 
1 44479U 19050A   22201.84146549  .00000106  00000+0  00000+0 0  9996
2 44479   0.0153   0.5374 0002511 141.6861 116.2855  1.00273349 10877
AEHF-5 (USA 292)        
1 44481U 19051A   22201.63066844  .00000084  00000+0  00000+0 0  9991
2 44481   4.3088 304.4513 0005570 180.2542  95.1888  1.00270624 10951
TDO-1                   
1 44482U 19051B   22201.06721974  .00000850  00000+0  57620-3 0  9996
2 44482  26.0732 240.7610 7192712 163.4427 245.9820  2.37340114 25237
AEROCUBE 10A (JIMSAT)   
1 44485U 19022D   22201.98624550  .00022012  00000+0  53517-3 0  9995
2 44485  51.6373 306.4371 0008017 178.5709 181.5300 15.40870337165377
2019-052B               
1 44487U 19052B   22202.16714396  .00004718  00000+0  28689-3 0  9994
2 44487  97.4993 273.5787 0020655 195.7502 248.1603 15.10749473161144
2019-052C               
1 44488U 19052C   22202.18151618  .00006549  00000+0  39204-3 0  9998
2 44488  97.4979 273.4840 0021320 193.9168 219.0591 15.11165208161137
