[{
    "OBJECT_NAME": "YAOGAN-30 P",
    "OBJECT_ID": "2019-045B",
    "EPOCH": "2022-07-21T04:55:45.081696",
    "MEAN_MOTION": 14.90584682,
    "ECCENTRICITY": 0.0011004,
    "INCLINATION": 34.9963,
    "RA_OF_ASC_NODE": 299.5597,
    "ARG_OF_PERICENTER": 304.7662,
    "MEAN_ANOMALY": 55.203,
    "EPHEMERIS_TYPE": 0,
    "CLASSIFICATION_TYPE": "U",
    "NORAD_CAT_ID": 44450,
    "ELEMENT_SET_NO": 999,
    "REV_AT_EPOCH": 16281,
    "BSTAR": 0.00015358,
    "MEAN_MOTION_DOT": 1.506e-5,
    "MEAN_MOTION_DDOT": 0
},{
    "OBJECT_NAME": "YAOGAN-30 Q",
    "OBJECT_ID": "2019-045C",
    "EPOCH": "2022-07-21T04:23:48.409152",
    "MEAN_MOTION": 14.90596329,
    "ECCENTRICITY": 0.0002265,
    "INCLINATION": 34.997,
    "RA_OF_ASC_NODE": 299.472,
    "ARG_OF_PERICENTER": 309.1741,
    "MEAN_ANOMALY": 50.8765,
    "EPHEMERIS_TYPE": 0,
    "CLASSIFICATION_TYPE": "U",
    "NORAD_CAT_ID": 44451,
    "ELEMENT_SET_NO": 999,
    "REV_AT_EPOCH": 16278,
    "BSTAR": 0.00015484,
    "MEAN_MOTION_DOT": 1.517e-5,
    "MEAN_MOTION_DDOT": 0
},{
    "OBJECT_NAME": "MERIDIAN 8",
    "OBJECT_ID": "2019-046A",
    "EPOCH": "2022-07-20T12:50:10.196736",
    "MEAN_MOTION": 2.00597251,
    "ECCENTRICITY": 0.6773952,
    "INCLINATION": 62.6661,
    "RA_OF_ASC_NODE": 210.0859,
    "ARG_OF_PERICENTER": 274.5895,
    "MEAN_ANOMALY": 348.2077,
    "EPHEMERIS_TYPE": 0,
    "CLASSIFICATION_TYPE": "U",
    "NORAD_CAT_ID": 44453,
    "ELEMENT_SET_NO": 999,
    "REV_AT_EPOCH": 2178,
    "BSTAR": 0,
    "MEAN_MOTION_DOT": 2.58e-6,
    "MEAN_MOTION_DDOT": 0
},{
    "OBJECT_NAME": "COSMOS 2539",
    "OBJECT_ID": "2019-048A",
    "EPOCH": "2022-07-20T20:56:05.589888",
    "MEAN_MOTION": 1.00274149,
    "ECCENTRICITY": 7.25e-5,
    "INCLINATION": 0.0504,
    "RA_OF_ASC_NODE": 112.0339,
    "ARG_OF_PERICENTER": 148.7466,
    "MEAN_ANOMALY": 3.8617,
    "EPHEMERIS_TYPE": 0,
    "CLASSIFICATION_TYPE": "U",
    "NORAD_CAT_ID": 44457,
    "ELEMENT_SET_NO": 999,
    "REV_AT_EPOCH": 1091,
    "BSTAR": 0,
    "MEAN_MOTION_DOT": 7.8e-7,
    "MEAN_MOTION_DDOT": 0
},{
    "OBJECT_NAME": "EDRS-C",
    "OBJECT_ID": "2019-049A",
    "EPOCH": "2022-07-21T01:59:58.313184",
    "MEAN_MOTION": 1.00271341,
    "ECCENTRICITY": 5.52e-5,
    "INCLINATION": 0.0403,
    "RA_OF_ASC_NODE": 235.7343,
    "ARG_OF_PERICENTER": 216.9873,
    "MEAN_ANOMALY": 267.2694,
    "EPHEMERIS_TYPE": 0,
    "CLASSIFICATION_TYPE": "U",
    "NORAD_CAT_ID": 44475,
    "ELEMENT_SET_NO": 999,
    "REV_AT_EPOCH": 1088,
    "BSTAR": 0,
    "MEAN_MOTION_DOT": 1.52e-6,
    "MEAN_MOTION_DDOT": 0
},{
    "OBJECT_NAME": "INTELSAT 39 (IS-39)",
    "OBJECT_ID": "2019-049B",
    "EPOCH": "2022-07-20T19:12:50.548320",
    "MEAN_MOTION": 1.00269938,
    "ECCENTRICITY": 8.64e-5,
    "INCLINATION": 0.0197,
    "RA_OF_ASC_NODE": 50.1739,
    "ARG_OF_PERICENTER": 267.1209,
    "MEAN_ANOMALY": 331.3872,
    "EPHEMERIS_TYPE": 0,
    "CLASSIFICATION_TYPE": "U",
    "NORAD_CAT_ID": 44476,
    "ELEMENT_SET_NO": 999,
    "REV_AT_EPOCH": 1083,
    "BSTAR": 0,
    "MEAN_MOTION_DOT": 3.0e-7,
    "MEAN_MOTION_DDOT": 0
},{
    "OBJECT_NAME": "AMOS-17",
    "OBJECT_ID": "2019-050A",
    "EPOCH": "2022-07-20T20:11:42.618336",
    "MEAN_MOTION": 1.00273349,
    "ECCENTRICITY": 0.0002511,
    "INCLINATION": 0.0153,
    "RA_OF_ASC_NODE": 0.5374,
    "ARG_OF_PERICENTER": 141.6861,
    "MEAN_ANOMALY": 116.2855,
    "EPHEMERIS_TYPE": 0,
    "CLASSIFICATION_TYPE": "U",
    "NORAD_CAT_ID": 44479,
    "ELEMENT_SET_NO": 999,
    "REV_AT_EPOCH": 1087,
    "BSTAR": 0,
    "MEAN_MOTION_DOT": 1.06e-6,
    "MEAN_MOTION_DDOT": 0
},{
    "OBJECT_NAME": "AEHF-5 (USA 292)",
    "OBJECT_ID": "2019-051A",
    "EPOCH": "2022-07-20T15:08:09.753216",
    "MEAN_MOTION": 1.00270624,
    "ECCENTRICITY": 0.000557,
    "INCLINATION": 4.3088,
    "RA_OF_ASC_NODE": 304.4513,
    "ARG_OF_PERICENTER": 180.2542,
    "MEAN_ANOMALY": 95.1888,
    "EPHEMERIS_TYPE": 0,
    "CLASSIFICATION_TYPE": "U",
    "NORAD_CAT_ID": 44481,
    "ELEMENT_SET_NO": 999,
    "REV_AT_EPOCH": 1095,
    "BSTAR": 0,
    "MEAN_MOTION_DOT": 8.4e-7,
    "MEAN_MOTION_DDOT": 0
},{
    "OBJECT_NAME": "TDO-1",
    "OBJECT_ID": "2019-051B",
    "EPOCH": "2022-07-20T01:36:47.785536",
    "MEAN_MOTION": 2.37340114,
    "ECCENTRICITY": 0.7192712,
    "INCLINATION": 26.0732,
    "RA_OF_ASC_NODE": 240.761,
    "ARG_OF_PERICENTER": 163.4427,
    "MEAN_ANOMALY": 245.982,
    "EPHEMERIS_TYPE": 0,
    "CLASSIFICATION_TYPE": "U",
    "NORAD_CAT_ID": 44482,
    "ELEMENT_SET_NO": 999,
    "REV_AT_EPOCH": 2523,
    "BSTAR": 0.0005762,
    "MEAN_MOTION_DOT": 8.5e-6,
    "MEAN_MOTION_DDOT": 0
},{
    "OBJECT_NAME": "AEROCUBE 10A (JIMSAT)",
    "OBJECT_ID": "2019-022D",
    "EPOCH": "2022-07-20T23:40:11.611200",
    "MEAN_MOTION": 15.40870337,
    "ECCENTRICITY": 0.0008017,
    "INCLINATION": 51.6373,
    "RA_OF_ASC_NODE": 306.4371,
    "ARG_OF_PERICENTER": 178.5709,
    "MEAN_ANOMALY": 181.53,
    "EPHEMERIS_TYPE": 0,
    "CLASSIFICATION_TYPE": "U",
    "NORAD_CAT_ID": 44485,
    "ELEMENT_SET_NO": 999,
    "REV_AT_EPOCH": 16537,
    "BSTAR": 0.00053517,
    "MEAN_MOTION_DOT": 0.00022012,
    "MEAN_MOTION_DDOT": 0
},{
    "OBJECT_NAME": "2019-052B",
    "OBJECT_ID": "2019-052B",
    "EPOCH": "2022-07-21T04:00:41.238144",
    "MEAN_MOTION": 15.10749473,
    "ECCENTRICITY": 0.0020655,
    "INCLINATION": 97.4993,
    "RA_OF_ASC_NODE": 273.5787,
    "ARG_OF_PERICENTER": 195.7502,
    "MEAN_ANOMALY": 248.1603,
    "EPHEMERIS_TYPE": 0,
    "CLASSIFICATION_TYPE": "U",
    "NORAD_CAT_ID": 44487,
    "ELEMENT_SET_NO": 999,
    "REV_AT_EPOCH": 16114,
    "BSTAR": 0.00028689,
    "MEAN_MOTION_DOT": 4.718e-5,
    "MEAN_MOTION_DDOT": 0
},{
    "OBJECT_NAME": "2019-052C",
    "OBJECT_ID": "2019-052C",
    "EPOCH": "2022-07-21T04:21:22.997952",
    "MEAN_MOTION": 15.11165208,
    "ECCENTRICITY": 0.002132,
    "INCLINATION": 97.4979,
    "RA_OF_ASC_NODE": 273.484,
    "ARG_OF_PERICENTER": 193.9168,
    "MEAN_ANOMALY": 219.0591,
    "EPHEMERIS_TYPE": 0,
    "CLASSIFICATION_TYPE": "U",
    "NORAD_CAT_ID": 44488,
    "ELEMENT_SET_NO": 999,
    "REV_AT_EPOCH": 16113,
    "BSTAR": 0.00039204,
    "MEAN_MOTION_DOT": 6.549e-5,
    "MEAN_MOTION_DDOT": 0
}]
